[{"OBJECT_NAME":"QIANFAN-34","OBJECT_ID":"2024-185R","EPOCH":"2026-03-09T23:48:13.151232","MEAN_MOTION":14.02387814,"ECCENTRICITY":0.00081871,"INCLINATION":88.9718,"RA_OF_ASC_NODE":68.5076,"ARG_OF_PERICENTER":66.0949,"MEAN_ANOMALY":294.1088,"EPHEMERIS_TYPE":0,"CLASSIFICATION_TYPE":"U","NORAD_CAT_ID":61567,"ELEMENT_SET_NO":999,"REV_AT_EPOCH":8158,"BSTAR":0.00037025397,"MEAN_MOTION_DOT":5.82e-6,"MEAN_MOTION_DDOT":0},{"OBJECT_NAME":"CZ-6A DEB","OBJECT_ID":"2022-151ADK","EPOCH":"2026-03-09T16:23:04.658784","MEAN_MOTION":13.91133839,"ECCENTRICITY":0.01695447,"INCLINATION":98.9293,"RA_OF_ASC_NODE":36.0193,"ARG_OF_PERICENTER":43.6474,"MEAN_ANOMALY":317.7953,"EPHEMERIS_TYPE":0,"CLASSIFICATION_TYPE":"U","NORAD_CAT_ID":56587,"ELEMENT_SET_NO":999,"REV_AT_EPOCH":14573,"BSTAR":0.0019385069,"MEAN_MOTION_DOT":2.699e-5,"MEAN_MOTION_DDOT":0}]
